{
  "type": "FeatureCollection",
  "features": [
    {
      "type": "Feature",
      "properties": {
        "norad_id": 66903,
        "name": "STARLINK-36077",
        "group": "last-30-days",
        "lat": 52.45963730442669,
        "lon": 136.38490170269841,
        "alt_km": 301.6434073292985,
        "timestamp": "2025-12-15T15:53:18.663117+00:00",
        "meta_object_name": "STARLINK-36077",
        "meta_object_id": "2025-283AB",
        "meta_epoch": "2025-12-14T20:00:06.000192",
        "meta_mean_motion": 15.90017544,
        "meta_eccentricity": 6.803e-05,
        "meta_inclination": 53.1547,
        "meta_ra_of_asc_node": 63.207,
        "meta_arg_of_pericenter": 65.1821,
        "meta_mean_anomaly": 315.1701,
        "meta_ephemeris_type": 0,
        "meta_classification_type": "U",
        "meta_norad_cat_id": 66903,
        "meta_element_set_no": 999,
        "meta_rev_at_epoch": 276,
        "meta_bstar": -0.0052881635,
        "meta_mean_motion_dot": -0.01419381,
        "meta_mean_motion_ddot": 0,
        "tle_line1": "1 66903U 25283AB  25348.83340278 -.01419381  00000+0 -52882-2 0  9996",
        "tle_line2": "2 66903  53.1547  63.2070 0000680  65.1821 315.1701 15.90017544  2765"
      },
      "geometry": {
        "type": "Point",
        "coordinates": [
          136.38490170269841,
          52.45963730442669
        ]
      }
    },
    {
      "type": "Feature",
      "properties": {
        "norad_id": 66904,
        "name": "STARLINK-36059",
        "group": "last-30-days",
        "lat": 52.83048476730187,
        "lon": 140.50722539898186,
        "alt_km": 301.571821463197,
        "timestamp": "2025-12-15T15:53:18.663126+00:00",
        "meta_object_name": "STARLINK-36059",
        "meta_object_id": "2025-283AC",
        "meta_epoch": "2025-12-14T20:00:06.000192",
        "meta_mean_motion": 15.9005341,
        "meta_eccentricity": 6.741e-05,
        "meta_inclination": 53.1544,
        "meta_ra_of_asc_node": 63.2016,
        "meta_arg_of_pericenter": 70.1182,
        "meta_mean_anomaly": 312.7002,
        "meta_ephemeris_type": 0,
        "meta_classification_type": "U",
        "meta_norad_cat_id": 66904,
        "meta_element_set_no": 999,
        "meta_rev_at_epoch": 276,
        "meta_bstar": -0.0053437693,
        "meta_mean_motion_dot": -0.01434639,
        "meta_mean_motion_ddot": 0,
        "tle_line1": "1 66904U 25283AC  25348.83340278 -.01434639  00000+0 -53438-2 0  9998",
        "tle_line2": "2 66904  53.1544  63.2016 0000674  70.1182 312.7002 15.90053410  2761"
      },
      "geometry": {
        "type": "Point",
        "coordinates": [
          140.50722539898186,
          52.83048476730187
        ]
      }
    },
    {
      "type": "Feature",
      "properties": {
        "norad_id": 66905,
        "name": "STARLINK-36075",
        "group": "last-30-days",
        "lat": 53.03827792609677,
        "lon": 144.20809087201812,
        "alt_km": 301.43582875025095,
        "timestamp": "2025-12-15T15:53:18.663134+00:00",
        "meta_object_name": "STARLINK-36075",
        "meta_object_id": "2025-283AD",
        "meta_epoch": "2025-12-14T20:00:06.000192",
        "meta_mean_motion": 15.9008042,
        "meta_eccentricity": 7.074e-05,
        "meta_inclination": 53.1547,
        "meta_ra_of_asc_node": 63.1973,
        "meta_arg_of_pericenter": 69.678,
        "meta_mean_anomaly": 315.2897,
        "meta_ephemeris_type": 0,
        "meta_classification_type": "U",
        "meta_norad_cat_id": 66905,
        "meta_element_set_no": 999,
        "meta_rev_at_epoch": 276,
        "meta_bstar": -0.0053242816,
        "meta_mean_motion_dot": -0.01431851,
        "meta_mean_motion_ddot": 0,
        "tle_line1": "1 66905U 25283AD  25348.83340278 -.01431851  00000+0 -53243-2 0  9996",
        "tle_line2": "2 66905  53.1547  63.1973 0000707  69.6780 315.2897 15.90080420  2761"
      },
      "geometry": {
        "type": "Point",
        "coordinates": [
          144.20809087201812,
          53.03827792609677
        ]
      }
    },
    {
      "type": "Feature",
      "properties": {
        "norad_id": 66906,
        "name": "1998-067XS",
        "group": "last-30-days",
        "lat": -2.0667251303654086,
        "lon": -50.44130130952292,
        "alt_km": 413.55583429141825,
        "timestamp": "2025-12-15T15:53:18.663143+00:00",
        "meta_object_name": "1998-067XS",
        "meta_object_id": "1998-067XS",
        "meta_epoch": "2025-12-14T03:31:53.110272",
        "meta_mean_motion": 15.5066238,
        "meta_eccentricity": 0.00034792,
        "meta_inclination": 51.6304,
        "meta_ra_of_asc_node": 135.4381,
        "meta_arg_of_pericenter": 209.6903,
        "meta_mean_anomaly": 150.3889,
        "meta_ephemeris_type": 0,
        "meta_classification_type": "U",
        "meta_norad_cat_id": 66906,
        "meta_element_set_no": 999,
        "meta_rev_at_epoch": 183,
        "meta_bstar": 0.00050586866,
        "meta_mean_motion_dot": 0.0002921,
        "meta_mean_motion_ddot": 0,
        "tle_line1": "1 66906U 98067XS  25348.14714248  .00029210  00000+0  50587-3 0  9991",
        "tle_line2": "2 66906  51.6304 135.4381 0003479 209.6903 150.3889 15.50662380  1837"
      },
      "geometry": {
        "type": "Point",
        "coordinates": [
          -50.44130130952292,
          -2.0667251303654086
        ]
      }
    },
    {
      "type": "Feature",
      "properties": {
        "norad_id": 66907,
        "name": "1998-067XT",
        "group": "last-30-days",
        "lat": -21.821317733532375,
        "lon": -33.635591333852595,
        "alt_km": 412.126007723733,
        "timestamp": "2025-12-15T15:53:18.663152+00:00",
        "meta_object_name": "1998-067XT",
        "meta_object_id": "1998-067XT",
        "meta_epoch": "2025-12-14T20:26:51.623232",
        "meta_mean_motion": 15.5174474,
        "meta_eccentricity": 0.0004185,
        "meta_inclination": 51.6299,
        "meta_ra_of_asc_node": 131.8946,
        "meta_arg_of_pericenter": 238.563,
        "meta_mean_anomaly": 121.4951,
        "meta_ephemeris_type": 0,
        "meta_classification_type": "U",
        "meta_norad_cat_id": 66907,
        "meta_element_set_no": 999,
        "meta_rev_at_epoch": 194,
        "meta_bstar": 0.00073206152,
        "meta_mean_motion_dot": 0.00044251,
        "meta_mean_motion_ddot": 0,
        "tle_line1": "1 66907U 98067XT  25348.85198638  .00044251  00000+0  73206-3 0  9994",
        "tle_line2": "2 66907  51.6299 131.8946 0004185 238.5630 121.4951 15.51744740  1944"
      },
      "geometry": {
        "type": "Point",
        "coordinates": [
          -33.635591333852595,
          -21.821317733532375
        ]
      }
    },
    {
      "type": "Feature",
      "properties": {
        "norad_id": 66908,
        "name": "1998-067XU",
        "group": "last-30-days",
        "lat": -23.899970301538957,
        "lon": -31.582968145226953,
        "alt_km": 411.81951142510206,
        "timestamp": "2025-12-15T15:53:18.663162+00:00",
        "meta_object_name": "1998-067XU",
        "meta_object_id": "1998-067XU",
        "meta_epoch": "2025-12-14T18:53:29.082624",
        "meta_mean_motion": 15.5183473,
        "meta_eccentricity": 0.00042823,
        "meta_inclination": 51.6294,
        "meta_ra_of_asc_node": 132.2114,
        "meta_arg_of_pericenter": 238.4154,
        "meta_mean_anomaly": 121.6418,
        "meta_ephemeris_type": 0,
        "meta_classification_type": "U",
        "meta_norad_cat_id": 66908,
        "meta_element_set_no": 999,
        "meta_rev_at_epoch": 193,
        "meta_bstar": 0.00094476318,
        "meta_mean_motion_dot": 0.00057527,
        "meta_mean_motion_ddot": 0,
        "tle_line1": "1 66908U 98067XU  25348.78714216  .00057527  00000+0  94476-3 0  9995",
        "tle_line2": "2 66908  51.6294 132.2114 0004282 238.4154 121.6418 15.51834730  1938"
      },
      "geometry": {
        "type": "Point",
        "coordinates": [
          -31.582968145226953,
          -23.899970301538957
        ]
      }
    },
    {
      "type": "Feature",
      "properties": {
        "norad_id": 66909,
        "name": "SILVERSAT",
        "group": "last-30-days",
        "lat": -26.229782330793576,
        "lon": -29.166331322969775,
        "alt_km": 411.7256965373854,
        "timestamp": "2025-12-15T15:53:18.663170+00:00",
        "meta_object_name": "SILVERSAT",
        "meta_object_id": "1998-067XV",
        "meta_epoch": "2025-12-14T21:58:11.659008",
        "meta_mean_motion": 15.51959159,
        "meta_eccentricity": 0.00041685,
        "meta_inclination": 51.6297,
        "meta_ra_of_asc_node": 131.568,
        "meta_arg_of_pericenter": 239.8452,
        "meta_mean_anomaly": 120.2125,
        "meta_ephemeris_type": 0,
        "meta_classification_type": "U",
        "meta_norad_cat_id": 66909,
        "meta_element_set_no": 999,
        "meta_rev_at_epoch": 195,
        "meta_bstar": 0.00078463431,
        "meta_mean_motion_dot": 0.00047853,
        "meta_mean_motion_ddot": 0,
        "tle_line1": "1 66909U 98067XV  25348.91541272  .00047853  00000+0  78463-3 0  9990",
        "tle_line2": "2 66909  51.6297 131.5680 0004168 239.8452 120.2125 15.51959159  1956"
      },
      "geometry": {
        "type": "Point",
        "coordinates": [
          -29.166331322969775,
          -26.229782330793576
        ]
      }
    }
  ]
}